Name,License Type,License Status,Phone Number,Address Number and Street,Address Line,City,State,ZIP,County,Named Individual #1,Named Individual #2
PACIFIC AUTO CLINIC,SMOG STATION - TEST & REPAIR,REVOKED,(209) 339-4046,25355 N. HWY 99 FRONTAGE RD,Null,ACAMPO,CA,95220,SAN JOAQUIN COUNTY," SINGH, VEER VIJAY",null
AUTO TECHNIKS,SMOG STATION - TEST & REPAIR,CANCELLED,(661) 252-4999,3932 W SIERRA HIGHWAY #B,Null,ACTON,CA,93510,LOS ANGELES COUNTY,null,null
A 1 ADELANTO AUTO REPAIR CENTER,SMOG STATION - TEST & REPAIR,REVOKED,(760) 246-8133,11719 BARTLETT AVE,Null,ADELANTO,CA,92301-1711,SAN BERNARDINO COUNTY," GOYTIA, YVONNE",null
ADELANTO SMOG,SMOG STATION - TEST ONLY,CANCELLED,(760) 991-6034,17845 JONATHAN STREET,Null,ADELANTO,CA,92301-0000,SAN BERNARDINO COUNTY," PALACIOS, EDWARD PETER",null
ADELANTO SMOG CHECK INC,SMOG STATION - TEST ONLY,CANCELLED,(702) 272-9800,11608 BARTLETT AVE,Null,ADELANTO,CA,92301,SAN BERNARDINO COUNTY,null,null
MAGIC SMOG,SMOG STATION - TEST ONLY,CANCELLED,(760) 987-0136,11683 RANCHO ROAD UNIT #1,Null,ADELANTO,CA,92301,SAN BERNARDINO COUNTY," QOTAMI, SULTAN S",null
MAGIC SMOG CENTER,SMOG STATION - TEST ONLY,VALID,(760) 530-9494,11683 RANCHO RD. UNIT 1,Null,ADELANTO,CA,92301-0000,SAN BERNARDINO COUNTY," HABHAB, SUHAIR FUAD",null
Null,Null,Null,Null,Null,Null,Null,Null,Null,Null,Null,Null
101 AGOURA HILLS SMOG,SMOG STATION - TEST ONLY,CANCELLED,(818) 397-0819,28115 DROTHY DRIVE #A,Null,AGOURA HILLS,CA,91301-0000,LOS ANGELES COUNTY," ANIS, WALID",null
AGOURA AUTO SPA INC,SMOG STATION - TEST & REPAIR,CANCELLED,(818) 879-1426,28236 DOROTHY DR #C,Null,AGOURA HILLS,CA,91301,LOS ANGELES COUNTY,null,null
AGOURA LUBE & SMOG,SMOG STATION - TEST & REPAIR,CANCELLED,(818) 707-0163,28115 DOROTHY DR. UNIT B,Null,AGOURA HILLS,CA,91301-0000,LOS ANGELES COUNTY," ZIDE, LAWRENCE M",null
AGOURA LUBE & SMOG,SMOG STATION - TEST ONLY,DELINQUENT,(818) 707-7388,28115 DOROTHY DRIVE,Null,AGOURA HILLS,CA,91301,LOS ANGELES COUNTY," SHERIF, MOHAMMED",null
H & A AUTO CARE,SMOG STATION - TEST & REPAIR,CANCELLED,(818) 707-0163,28115 DOROTHY DRIVE,Null,AGOURA HILLS,CA,91301,LOS ANGELES COUNTY," DELGADO, ALFREDO J","PEREGRINO, HECTOR"
ROADSIDE SMOG TEST ONLY,SMOG STATION - TEST ONLY,VALID,(818) 889-5800,29338 ROADSIDE DR #C,Null,AGOURA HILLS,CA,91301,LOS ANGELES COUNTY," GU, JAMEE JUNG",null
Null,Null,Null,Null,Null,Null,Null,Null,Null,Null,Null,Null
Null,Null,Null,Null,Null,Null,Null,Null,Null,Null,Null,Null
AAC SMOG TEST & REPAIR,SMOG STATION - TEST ONLY,CANCELLED,(510) 263-9888,2267 LINCOLN AVE,Null,ALAMEDA,CA,94501,ALAMEDA COUNTY," SEID, WING YIP","MARK-SEID, YVONNE"
AAC SMOG TEST & REPAIR,SMOG STATION - TEST ONLY,CANCELLED,(510) 263-9888,2267 LINCOLN AVE,Null,ALAMEDA,CA,94501,ALAMEDA COUNTY," SEID, WING YIP","MARK-SEID, YVONNE"
AAC SMOG TEST & REPAIR,SMOG STATION - TEST & REPAIR,VALID,(510) 263-9888,2267 LINCOLN AVE,Null,ALAMEDA,CA,94501,ALAMEDA COUNTY," SEID, WING YIP","MARK-SEID, YVONNE"
AAC SMOG TEST & REPAIR,SMOG STATION - TEST & REPAIR,VALID,(510) 263-9888,2267 LINCOLN AVE,Null,ALAMEDA,CA,94501,ALAMEDA COUNTY," SEID, WING YIP","MARK-SEID, YVONNE"
ALAMEDA ALFA AUTO REPAIR,SMOG STATION - TEST & REPAIR,SUSPENDED,(510) 749-9889,1541 PARK STREET #B,Null,ALAMEDA,CA,94501-0000,ALAMEDA COUNTY," YEUNG, RAYMOND C",null
ALAMEDA AUTO CARE CENTER,SMOG STATION - TEST & REPAIR,REVOKED,(415) 865-7872,2405 EAGLE AVE,Null,ALAMEDA,CA,94501-1524,ALAMEDA COUNTY," CHOY, PHILLIP","GIN, GILBERT A"
ALAMEDA AUTO CARE CENTER,SMOG STATION - TEST & REPAIR,VALID,(510) 865-7872,2405 EAGLE AVENUE,Null,ALAMEDA,CA,94501,ALAMEDA COUNTY," CHAU, ANDY","CHAU, DAVID XUONG"
ALAMEDA SMOG,SMOG STATION - TEST ONLY,VALID,(510) 735-5705,1928 HIGH ST.,Null,ALAMEDA,CA,94501-0000,ALAMEDA COUNTY," CORTEZ VERA, ROBERT ANTHONY","TURANOVIC, IRMAN"
ALAMEDA SMOG CHECK,SMOG STATION - TEST ONLY,CANCELLED,(510) 735-5705,1928 HIGH ST.,Null,ALAMEDA,CA,94501,ALAMEDA COUNTY,null,null
ALAMEDA SMOG DOG,SMOG STATION - TEST ONLY,CANCELLED,(510) 522-7664,1726 PARK ST. # A,Null,ALAMEDA,CA,94501-0000,ALAMEDA COUNTY,null,null
ALAMEDA SMOG DOG,SMOG STATION - TEST ONLY,VALID,(510) 522-7664,1726 PARK ST. #A,Null,ALAMEDA,CA,94501-0000,ALAMEDA COUNTY," TODD, CARL DAVID",null
ALAMEDA SMOG DOG,SMOG STATION - TEST ONLY,REVOKED,(510) 205-1984,2035 SAN ANTARIO AVE,Null,ALAMEDA,CA,94501,ALAMEDA COUNTY,null,null
ALAMEDA SMOG TEST CENTER,SMOG STATION - TEST ONLY,REVOKED,(510) 523-5900,1716 WEBSTER STREET,Null,ALAMEDA,CA,94501,ALAMEDA COUNTY," PHAM, JOHN CONG",null
BLANDING AUTO REPAIR,SMOG STATION - TEST & REPAIR,VALID,(415) 608-2688,2338 BLANDING AVE,Null,ALAMEDA,CA,94501-0000,ALAMEDA COUNTY," TAM, KWOK L",null
CENTRAL AUTO SERVICE,SMOG STATION - TEST ONLY,CANCELLED,(510) 523-4770,1310 CENTRAL AVENUE,Null,ALAMEDA,CA,94501,ALAMEDA COUNTY,null,null
CENTRAL AUTO SERVICE,SMOG STATION - TEST & REPAIR,VALID,(510) 523-4770,1310 CENTRAL AVENUE,Null,ALAMEDA,CA,94501-0000,ALAMEDA COUNTY," PHUNG, PETER QUANG","SINGH, HARJINDER"
COLLEGE OF ALAMEDA AUTO MEC PROGM,SMOG STATION - TEST & REPAIR,VALID,(510) 522-7221,555 ATLANTIC AVE,Null,ALAMEDA,CA,94501-2109,ALAMEDA COUNTY," GREENSPAN, RICHARD",null
ENGINE WORKS,SMOG STATION - TEST & REPAIR,VALID,(510) 523-6779,1923 MINTURN STREET,Null,ALAMEDA,CA,94501-0000,ALAMEDA COUNTY," QUAN, ERIC FAY",null
FREDS WRENCHOUSE,SMOG STATION - TEST & REPAIR,VALID,(510) 521-7215,647 BUENA VISTA AVE,Null,ALAMEDA,CA,94501-2110,ALAMEDA COUNTY," HOGENBOOM, FREDERIK JACOB",null
HARBOR BAY 76 SERVICE,SMOG STATION - TEST & REPAIR,VALID,(510) 523-7408,3255 MECARTNEY RD,Null,ALAMEDA,CA,94502-6922,ALAMEDA COUNTY," KIM, ANGIE H","KIM, SIMON W"
JERRYS TIRE & AUTO CENTER,SMOG STATION - TEST & REPAIR,CANCELLED,(510) 523-4423,2501 SANTA CLARA AVENUE,Null,ALAMEDA,CA,94501-2914,ALAMEDA COUNTY," SHERMAN, JERRY DUANE",null
QUIK SMOG,SMOG STATION - TEST ONLY,DELINQUENT,(510) 475-8777,2035 SAN ANTONIO AVE,Null,ALAMEDA,CA,94501,ALAMEDA COUNTY," DUBOW, ROBERT ANDREW",null
ROYAL AUTO REPAIR,SMOG STATION - TEST & REPAIR,REVOKED,(510) 522-2667,1127 LINCOLN AVE,Null,ALAMEDA,CA,94501-2323,ALAMEDA COUNTY," JABER, CRAIG","KING, RICHARD"
ROYAL AUTO REPAIR,SMOG STATION - TEST & REPAIR,REVOKED,(510) 522-2667,1127 LINCOLN AVENUE,Null,ALAMEDA,CA,94501,ALAMEDA COUNTY," JABER, CRAIG F",null
SHELL OF ALAMEDA,SMOG STATION - TEST & REPAIR,CANCELLED,(510) 523-0191,1601 WEBSTER ST,Null,ALAMEDA,CA,94501-2133,ALAMEDA COUNTY," TRINH, DON","TRINH, SAM TRUONG"
SMOG DOG,SMOG STATION - TEST ONLY,SUSPENDED,(925) 691-1045,2035 SAN ANTONIO AVE,Null,ALAMEDA,CA,94501,ALAMEDA COUNTY," DUBOW, ROBERT ANDREW",null
VALLEJO SMOG DOG,SMOG STATION - TEST ONLY,CANCELLED,(510) 205-1984,2035 SAN ANTONIO AVE,Null,ALAMEDA,CA,94501,ALAMEDA COUNTY,null,null
SMOG MONKEY,SMOG STATION - TEST & REPAIR,CANCELLED,(925) 595-2467,2336 BLANDING AVE,Null,ALAMEDA,CA,94501,ALAMEDA COUNTY,null,null
ALAMEDA SMOG DOG,SMOG STATION - TEST ONLY,CANCELLED,(510) 522-7664,1726 PARK ST. # A,Null,ALAMEDA,CA,94501-0000,ALAMEDA COUNTY,null,null
SPEEDY SMOG,SMOG STATION - TEST ONLY,REVOKED,(510) 522-7664,1726 PARK ST #A,Null,ALAMEDA,CA,94501-0000,ALAMEDA COUNTY,null,null
TONYS MOTOR SERVICE,SMOG STATION - TEST & REPAIR,CANCELLED,(510) 769-6085,1800 PARK ST,Null,ALAMEDA,CA,94501,ALAMEDA COUNTY," CUNAHAN, ANTONIO M",null
VALLEJO SMOG DOG,SMOG STATION - TEST ONLY,CANCELLED,(510) 205-1984,2035 SAN ANTONIO AVE,Null,ALAMEDA,CA,94501,ALAMEDA COUNTY,null,null
WHITMORE'S AUTO SERVICE,SMOG STATION - TEST & REPAIR,CANCELLED,(510) 715-6700,1701 BUENA VISTA AVE,Null,ALAMEDA,CA,94501-1202,ALAMEDA COUNTY,null,null
WEBSTER STREET UNION,SMOG STATION - TEST & REPAIR,DELINQUENT,(415) 521-2900,1629 WEBSTER ST,Null,ALAMEDA,CA,94501-2133,ALAMEDA COUNTY," KING, LARRY",null
WHITMORE'S AUTO SERVICE,SMOG STATION - TEST & REPAIR,CANCELLED,(510) 715-6700,1701 BUENA VISTA AVE,Null,ALAMEDA,CA,94501-1202,ALAMEDA COUNTY,null,null
Null,Null,Null,Null,Null,Null,Null,Null,Null,Null,Null,Null
ALBANY SUBARU,SMOG STATION - TEST & REPAIR,CANCELLED,(510) 528-1244,929 SAN PABLO AVE,Null,ALBANY,CA,94706-2009,ALAMEDA COUNTY,null,null
ALBANY SMOG TEST ONLY,SMOG STATION - TEST ONLY,VALID,(510) 524-7201,1111 SAN PABLO AVE STE B,Null,ALBANY,CA,94706-0000,ALAMEDA COUNTY," YU, YIWEN",null
ALBANY SUBARU,SMOG STATION - TEST & REPAIR,VALID,(510) 528-1244,929 SAN PABLO AVENUE,Null,ALBANY,CA,94706,ALAMEDA COUNTY," BENEFIT OF MICHAEL BERGLANDS-CAPPO, JEFFREY CAPPO T","CAPPO, JEFFREY EUGENE"
ALBANY SUBARU,SMOG STATION - TEST & REPAIR,CANCELLED,(510) 528-1244,929 SAN PABLO AVE,Null,ALBANY,CA,94706-2009,ALAMEDA COUNTY,null,null
ALBANY TIRE SERVICE,SMOG STATION - TEST & REPAIR,VALID,(510) 525-6427,742 SAN PABLO AVE,Null,ALBANY,CA,94706-1131,ALAMEDA COUNTY," OLSON, JOHN E",null
ARLINGTON AUTO SHOP,SMOG STATION - TEST & REPAIR,DELINQUENT,(510) 525-7095,806 SAN PABLO AVE,Null,ALBANY,CA,94706-0000,ALAMEDA COUNTY," SANCHEZ, ROBERTO R",null
AUTO CARE 101,SMOG STATION - TEST & REPAIR,CANCELLED,(510) 526-6011,700 SAN PABLO AVE,Null,ALBANY,CA,94706,ALAMEDA COUNTY,null,null
AUTO PLUS,SMOG STATION - TEST & REPAIR,VALID,(510) 527-0100,700 SAN PABLO AVE,Null,ALBANY,CA,94706-1126,ALAMEDA COUNTY," GARDIZI, ALI MOHAMMED",null
ALBANY SUBARU,SMOG STATION - TEST & REPAIR,VALID,(510) 528-1244,929 SAN PABLO AVENUE,Null,ALBANY,CA,94706,ALAMEDA COUNTY," BENEFIT OF MICHAEL BERGLANDS-CAPPO, JEFFREY CAPPO T","CAPPO, JEFFREY EUGENE"
NIPPON EUROPEAN MOTORS,SMOG STATION - TEST & REPAIR,CANCELLED,(510) 527-2443,730 SAN PABLO AVE,Null,ALBANY,CA,94706-1131,ALAMEDA COUNTY," INTHAWONG, SUTHEP TOM",null
TOYOTA OF BERKELEYS I-80 JUNCTION,SMOG STATION - TEST & REPAIR,VALID,(510) 845-7500,1025 EASTSHORE HIGHWAY,Null,ALBANY,CA,94710,ALAMEDA COUNTY," SOUTHWICK, TIMOTHY KENT SR","HUDSON, ADA MARILYN"
SUPER AUTO REPAIR,SMOG STATION - TEST & REPAIR,VALID,(510) 526-4490,630 SAN PABLO AVENUE,Null,ALBANY,CA,94706,ALAMEDA COUNTY,null,null
TOYOTA OF BERKELEYS I-80 JUNCTION,SMOG STATION - TEST & REPAIR,VALID,(510) 845-7500,1025 EASTSHORE HIGHWAY,Null,ALBANY,CA,94710,ALAMEDA COUNTY," SOUTHWICK, TIMOTHY KENT SR","HUDSON, ADA MARILYN"
Null,Null,Null,Null,Null,Null,Null,Null,Null,Null,Null,Null
Null,Null,Null,Null,Null,Null,Null,Null,Null,Null,Null,Null
700 THONG AUTO SERVICE,SMOG STATION - TEST & REPAIR,VALID,(626) 289-5563,700 S. ATLANTIC BLVD,Null,ALHAMBRA,CA,91803,LOS ANGELES COUNTY," LAM, RANDY",null
A 1 AUTOMOTIVE & SMOG,SMOG STATION - TEST & REPAIR,CANCELLED,(626) 537-4811,441 W VALLEY BLVD,Null,ALHAMBRA,CA,91803,LOS ANGELES COUNTY,null,null
A1 AUTOMOTIVE & SMOG,SMOG STATION - TEST & REPAIR,DELINQUENT,(626) 537-4811,441 W VALLEY BLVD,Null,ALHAMBRA,CA,91803,LOS ANGELES COUNTY," LA, HUY P","LY, PHUONG H"
ALHAMBRA NISSAN,SMOG STATION - TEST & REPAIR,CANCELLED,(866) 752-0365,726 E. MAIN STREET,Null,ALHAMBRA,CA,91801,LOS ANGELES COUNTY,null,null
ALHAMBRA NISSAN,SMOG STATION - TEST & REPAIR,CANCELLED,(626) 289-6161,726 E MAIN ST,Null,ALHAMBRA,CA,91801-4052,LOS ANGELES COUNTY,null,null
ALHAMBRA SMOG CENTER,SMOG STATION - TEST ONLY,VALID,(626) 284-1700,3000 W MAIN STREET,Null,ALHAMBRA,CA,91801-0000,LOS ANGELES COUNTY," MOSES, VARTAN MOSES",null
ANTHONYS SMOG STATION,SMOG STATION - TEST ONLY,DELINQUENT,(626) 300-8765,2601 W MAIN ST UNIT B,Null,ALHAMBRA,CA,91801-0000,LOS ANGELES COUNTY," CACERES, HAROLD A",null
ANTHONYS SMOG STATION,SMOG STATION - TEST & REPAIR,CANCELLED,(626) 300-8765,2601 W MAIN ST UNIT B,Null,ALHAMBRA,CA,91801,LOS ANGELES COUNTY,null,null
AUTO PROS 76 INC,SMOG STATION - TEST & REPAIR,VALID,(626) 300-8020,601 WEST VALLEY BLVD,Null,ALHAMBRA,CA,91803-0000,LOS ANGELES COUNTY," CHAU, TY VAN","LA BINH, THOI"
"AUTO UPGRADE SERVICE, INC",SMOG STATION - TEST & REPAIR,VALID,(626) 457-8766,2101 # C W VALLEY BLVD,Null,ALHAMBRA,CA,91803,LOS ANGELES COUNTY," LUO, JIEJIA","LI, DAVID"
BEWLEY ALLEN CADILLAC,SMOG STATION - TEST & REPAIR,CANCELLED,(626) 289-5203,801 E MAIN ST,Null,ALHAMBRA,CA,91801-4055,LOS ANGELES COUNTY,null,null
BOB WONDRIES FORD,SMOG STATION - TEST & REPAIR,VALID,(626) 289-3591,400 S ATLANTIC BLVD,Null,ALHAMBRA,CA,91801-3642,LOS ANGELES COUNTY," WONDRIES, PAUL",null
CALIFORNIA SUPERSTORES ALHAMBRA CHRYSLER DODGE JEEP RAM,SMOG STATION - TEST & REPAIR,CANCELLED,(888) 839-6088,1100 W MAIN STREET,Null,ALHAMBRA,CA,91801,LOS ANGELES COUNTY,null,null
EXPRESS GENERAL AUTO REPAIR INC,SMOG STATION - TEST & REPAIR,CANCELLED,(626) 284-3408,2411 W MAIN ST,Null,ALHAMBRA,CA,91801,LOS ANGELES COUNTY," LIANG, PAUL","YU, SUWEN"
EZ TIRE STOP,SMOG STATION - TEST & REPAIR,DELINQUENT,(626) 300-9292,502 S GARFIELD AVE,Null,ALHAMBRA,CA,91801,LOS ANGELES COUNTY," CHEUNG, CALEB",null
GASVAN INC,SMOG STATION - TEST ONLY,CANCELLED,(626) 570-0555,600 N GARFIELD AVE,Null,ALHAMBRA,CA,91801,LOS ANGELES COUNTY," THAI, RICKY","THAI, ANTHONY"
GILBERT MOTOR SERVICE,SMOG STATION - REPAIR ONLY,CANCELLED,(626) 282-0644,2100 WEST VALLEY BLVD,Null,ALHAMBRA,CA,91803,LOS ANGELES COUNTY,null,null
GOUDY HONDA,SMOG STATION - TEST & REPAIR,VALID,(626) 576-1114,1400 W MAIN ST,Null,ALHAMBRA,CA,91801-1952,LOS ANGELES COUNTY," GOUDY, GORDON H","FRENI, MARILYN M"
KERECHUK MOTOR SERVICE,SMOG STATION - TEST & REPAIR,CANCELLED,(626) 308-0811,120 EAST VALLEY BLVD,Null,ALHAMBRA,CA,91801-0000,LOS ANGELES COUNTY,null,null
KINS EXXON,SMOG STATION - TEST ONLY,CANCELLED,(626) 588-2021,600 N GARFIELD AVENUE,Null,ALHAMBRA,CA,91801,LOS ANGELES COUNTY," LAW, KIN YIN","LAW, ANITA LIN"
LEAL SMOGS,SMOG STATION - TEST ONLY,CANCELLED,(323) 835-9742,3200 VALLEY BLVD UNIT #A,Null,ALHAMBRA,CA,91803,LOS ANGELES COUNTY," LEAL, MARISOL",null
"LIM'S AUTO CARE, INC",SMOG STATION - TEST & REPAIR,VALID,(626) 457-5901,521 W MISSION RD,Null,ALHAMBRA,CA,91801-0000,LOS ANGELES COUNTY," LIM, PETER-LIEN KIM",null
LU'S AUTO REPAIR,SMOG STATION - TEST & REPAIR,VALID,(626) 478-5190,2000 W VALLEY BLVD,Null,ALHAMBRA,CA,91803,LOS ANGELES COUNTY," LU, DAVID",null
M & G AUTO REPAIR,SMOG STATION - TEST & REPAIR,VALID,(626) 284-3037,9 W MISSION RD #B,Null,ALHAMBRA,CA,91801-3860,LOS ANGELES COUNTY," TREJO, GREGORIO PEREZ",null
M P & G TUNE UP CENTER,SMOG STATION - TEST & REPAIR,DELINQUENT,(213) 289-3116,3201 VALLEY BLVD,Null,ALHAMBRA,CA,91803-1826,LOS ANGELES COUNTY," FLOYD, ARLEND",null
MISSION TEST ONLY CENTER,SMOG STATION - TEST ONLY,VALID,(626) 703-4848,9 WEST MISSION RD UNIT B,Null,ALHAMBRA,CA,91801,LOS ANGELES COUNTY," MALDONADO, RUDOLPH",null
MODERN AUTO SERVICE,SMOG STATION - TEST & REPAIR,CANCELLED,(626) 281-4772,2350 W MAIN ST,Null,ALHAMBRA,CA,91801-1742,LOS ANGELES COUNTY,null,null
NEW CENTURY BMW,SMOG STATION - TEST & REPAIR,VALID,(626) 570-8444,1139 W MAIN ST,Null,ALHAMBRA,CA,91801,LOS ANGELES COUNTY," LIN, FRANK TZUHSU","LIN, TZU CHIEN"
P & W AUTO PARTS STORE,SMOG STATION - TEST & REPAIR,VALID,(626) 282-2148,315 W MISSION RD,Null,ALHAMBRA,CA,91801-3309,LOS ANGELES COUNTY," ALCOCER, ALFRED",null
RED BOX AUTO REPAIR,SMOG STATION - TEST & REPAIR,VALID,(626) 570-8177,515 W MISSION RD,Null,ALHAMBRA,CA,91801-3612,LOS ANGELES COUNTY," SUNG, TIE-WEI",null
S & M AUTO CENTER,SMOG STATION - TEST & REPAIR,CANCELLED,(626) 300-9292,502 S GARFIELD AVENUE,Null,ALHAMBRA,CA,91801-0000,LOS ANGELES COUNTY,null,null
SEVEN TEN SMOG CHECK,SMOG STATION - TEST ONLY,VALID,(323) 637-1072,3200 VALLEY BLVD UNIT B,Null,ALHAMBRA,CA,91803-0000,LOS ANGELES COUNTY," PLATA, JOSELYN GABRIELA",null
SHEPARD'S AUTOMOTIVE,SMOG STATION - TEST & REPAIR,DELINQUENT,(626) 308-3677,2524 W. MAIN ST.,Null,ALHAMBRA,CA,91801-0000,LOS ANGELES COUNTY," SHEPARD, STEPHEN MICHAEL","SLOAN, RENA MIA"
SIERRA ACURA OF ALHAMBRA,SMOG STATION - TEST & REPAIR,CANCELLED,(626) 284-8533,1700 W MAIN ST,Null,ALHAMBRA,CA,91801-1826,LOS ANGELES COUNTY,null,null
SILVER SMOG CHECK,SMOG STATION - TEST ONLY,VALID,(323) 420-9713,2601 W MAIN ST,Null,ALHAMBRA,CA,91801,LOS ANGELES COUNTY," CHAVEZ, ERIBAN PLATA",null
SMOG PROS ALHAMBRA,SMOG STATION - TEST & REPAIR,VALID,(626) 289-3116,3201 W VALLEY BLVD,Null,ALHAMBRA,CA,91803,LOS ANGELES COUNTY," WONG, GARY K",null
TUNEUP MASTERS,SMOG STATION - TEST & REPAIR,CANCELLED,(626) 282-4626,521 W MISSION RD,Null,ALHAMBRA,CA,91801-3612,LOS ANGELES COUNTY," MCGORRIAN, RICHARD J","FELICIA, JAMES"
UNITED SMOG & REPAIR STATION,SMOG STATION - TEST ONLY,CANCELLED,(626) 282-6069,600 NORTH GARFIELD AVE,Null,ALHAMBRA,CA,91801,LOS ANGELES COUNTY," KATRDZHYAN, AKOP JACK",null
UNITED SMOG & REPAIR STATION,SMOG STATION - TEST ONLY,CANCELLED,(626) 282-6069,600 NORTH GARFIELD AVE,Null,ALHAMBRA,CA,91801,LOS ANGELES COUNTY," KATRDZHYAN, AKOP JACK",null
UNITED SMOG & REPAIR STATION,SMOG STATION - TEST & REPAIR,VALID,(626) 282-6069,600 NORTH GARFIELD AVE,Null,ALHAMBRA,CA,91801,LOS ANGELES COUNTY," KATRDZHYAN, AKOP JACK",null
UNITED SMOG & REPAIR STATION,SMOG STATION - TEST & REPAIR,VALID,(626) 282-6069,600 NORTH GARFIELD AVE,Null,ALHAMBRA,CA,91801,LOS ANGELES COUNTY," KATRDZHYAN, AKOP JACK",null
UNITED TEST ONLY CENTER,SMOG STATION - TEST ONLY,CANCELLED,(626) 282-6069,600 N GARFIELD AVE,Null,ALHAMBRA,CA,91801,LOS ANGELES COUNTY," ASMAR, MAZEN",null
UPGRADE AUTO SERVICE,SMOG STATION - TEST & REPAIR,CANCELLED,(626) 282-5166,1007 FREMONT #C,Null,ALHAMBRA,CA,91803-1324,LOS ANGELES COUNTY,null,null
VALLEY AUTO REPAIR & SMOG STATION,SMOG STATION - TEST & REPAIR,VALID,(626) 282-9682,200 E VALLEY BLVD,Null,ALHAMBRA,CA,91801,LOS ANGELES COUNTY," LOI, FRANK TRACH",null
WEST VALLEY AUTOMOTIVE INC,SMOG STATION - TEST ONLY,CANCELLED,(626) 576-8463,1536 W VALLEY BLVD,Null,ALHAMBRA,CA,91803,LOS ANGELES COUNTY," LUI, GARY C","LUI, ANITA CAIYIN"
WEST VALLEY AUTOMOTIVE INC,SMOG STATION - TEST & REPAIR,VALID,(626) 576-8463,1536 W VALLEY BLVD,Null,ALHAMBRA,CA,91803,LOS ANGELES COUNTY," LUI, GARY C","LUI, ANITA CAIYIN"
WONDRIES TOYOTA,SMOG STATION - TEST & REPAIR,VALID,(626) 289-8000,1543 W MAIN ST,Null,ALHAMBRA,CA,91801-1949,LOS ANGELES COUNTY," WONDRIES, PAUL",null
Y TIRE SALES,SMOG STATION - TEST & REPAIR,CANCELLED,(626) 570-1113,2969 WEST VALLEY BLVD,Null,ALHAMBRA,CA,91803,LOS ANGELES COUNTY," SHUPING, SUN","YONG, WANG"
ALISO SMOG,SMOG STATION - TEST ONLY,CANCELLED,(949) 448-7002,27802 ALISO CREEK RD D180,Null,ALISO VIEJO,CA,92656,ORANGE COUNTY,null,null
ALISO SMOG CHECK,SMOG STATION - TEST ONLY,VALID,(949) 448-7002,27802 ALISO CREEK RD D180,Null,ALISO VIEJO,CA,92656-0000,ORANGE COUNTY," CHHIM, CODY",null
ALISO SMOG CHECK,SMOG STATION - TEST & REPAIR,REVOKED,(949) 448-7002,"27802 ALISO CREEK RD, D180",Null,ALISO VIEJO,CA,92656-0000,ORANGE COUNTY,null,null
ALISO SMOG CHECK,SMOG STATION - TEST ONLY,CANCELLED,(949) 448-7002,"27802 ALISO CREEK RD, D180",Null,ALISO VIEJO,CA,92656-0000,ORANGE COUNTY," RINGO, MIRJANA","RINGO, RALPH ANTHONY"
ALISO VIEJO AUTO SERVICE CENTER IN,SMOG STATION - TEST & REPAIR,CANCELLED,(949) 362-1961,27802 ALISO CREEK ROAD D110,Null,ALISO VIEJO,CA,92656,ORANGE COUNTY,null,null
LA PAZ SERVICE CENTER INC,SMOG STATION - TEST & REPAIR,CANCELLED,(949) 362-8955,27812 ALISO CREEK RD #120,Null,ALISO VIEJO,CA,92656,ORANGE COUNTY," GOLUPSKI, DOUGLAS DAVID","GOLUPSKI, STACI LYNN"
MEINEKE & ECONOLUBE #4129,SMOG STATION - TEST & REPAIR,CANCELLED,(949) 643-9667,22932 GLENWOOD DR,Null,ALISO VIEJO,CA,92656,ORANGE COUNTY,null,null
MODERN TECH ENGINEERING,SMOG STATION - TEST & REPAIR,REVOKED,(949) 707-6442,27802 ALISO CREEK RD #D-120,Null,ALISO VIEJO,CA,92656-3843,ORANGE COUNTY," KUCHEKI, RAY R",null
PACIFIC AUTOMOTIVE,SMOG STATION - TEST & REPAIR,CANCELLED,(949) 362-8212,22972 PACIFIC PARK DR UNIT B,Null,ALISO VIEJO,CA,92656,ORANGE COUNTY," SWEETT, JAMES",null
PACIFIC PARK UNION 76,SMOG STATION - TEST & REPAIR,CANCELLED,(949) 643-2441,24281 PACIFIC PARK,Null,ALISO VIEJO,CA,92656-0000,ORANGE COUNTY,null,null
PEP BOYS AUTO SERVICE & TIRES #880,SMOG STATION - TEST & REPAIR,VALID,(949) 362-9254,26881 ALISO CREEK RD,Null,ALISO VIEJO,CA,92656,ORANGE COUNTY," THE PEP BOYS MANNY, MOE & JACK, OF CALIFORNIA L",null
PEP BOYS AUTO #880,SMOG STATION - TEST & REPAIR,VALID,(949) 362-9254,26881 ALISO CREEK RD,Null,ALISO VIEJO,CA,92656-2882,ORANGE COUNTY," KANER, BRIAN","DEDES, LIVIU"
PEP BOYS AUTO #880,SMOG STATION - TEST & REPAIR,VALID,(949) 362-9254,26881 ALISO CREEK RD,Null,ALISO VIEJO,CA,92656-2882,ORANGE COUNTY," KANER, BRIAN","DEDES, LIVIU"
PEP BOYS AUTO SERVICE & TIRES #880,SMOG STATION - TEST & REPAIR,VALID,(949) 362-9254,26881 ALISO CREEK RD,Null,ALISO VIEJO,CA,92656,ORANGE COUNTY," THE PEP BOYS MANNY, MOE & JACK, OF CALIFORNIA L",null
SMOG EXPRESS,SMOG STATION - TEST ONLY,VALID,(949) 916-8700,22972 PACIFIC PARK DR SUITE C,Null,ALISO VIEJO,CA,92656-0000,ORANGE COUNTY," SINNO, LINA K",null
SMOG GUYS,SMOG STATION - TEST ONLY,VALID,(949) 643-1630,26996 LAPAZ RD,Null,ALISO VIEJO,CA,92656-3040,ORANGE COUNTY," DANESH, SHAHRAZ",null
Null,Null,Null,Null,Null,Null,Null,Null,Null,Null,Null,Null
Null,Null,Null,Null,Null,Null,Null,Null,Null,Null,Null,Null
FAMILY AUTO SERVICE,SMOG STATION - TEST & REPAIR,CANCELLED,(619) 445-1444,2417 ALPINE BLVD,Null,ALPINE,CA,91901,SAN DIEGO COUNTY,null,null
ALPINE BLVD 76,SMOG STATION - TEST & REPAIR,CANCELLED,(619) 659-3267,2232 ALPINE BLVD,Null,ALPINE,CA,91901-0000,SAN DIEGO COUNTY,null,null
FAMILY AUTO SERVICE,SMOG STATION - TEST & REPAIR,VALID,(520) 229-9380,2417 ALPINE BLVD,Null,ALPINE,CA,91901,SAN DIEGO COUNTY," KNELLER, FRANK","BAER, BRIAN"
FAMILY AUTO SERVICE,SMOG STATION - TEST & REPAIR,CANCELLED,(619) 445-1444,2417 ALPINE BLVD,Null,ALPINE,CA,91901,SAN DIEGO COUNTY,null,null
PINE VALLEY AUTO REPAIR INC,SMOG STATION - TEST & REPAIR,VALID,(619) 445-9336,2556 ALPINE BLVD,Null,ALPINE,CA,91901-0000,SAN DIEGO COUNTY," DELRIO, JOSE L","DELRIO, MARIA E"
Null,Null,Null,Null,Null,Null,Null,Null,Null,Null,Null,Null
AC TUNE UP,SMOG STATION - TEST & REPAIR,REVOKED,(626) 791-0605,2645 FAIROAKS,Null,ALTADENA,CA,91001-5068,LOS ANGELES COUNTY," FOX, SERGIO",null
ALPHA SMOG AND TEST ONLY INC,SMOG STATION - TEST & REPAIR,CANCELLED,(626) 797-1050,15 W WOODBURY RD,Null,ALTADENA,CA,91001-0000,LOS ANGELES COUNTY," MIRZAKHANIAN, ALEXANDRA","MIRZAKHANIAN, OLICE"
ALPHA SMOG AND TEST ONLY INC,SMOG STATION - TEST ONLY,CANCELLED,(626) 797-1050,15 W WOODBURY RD,Null,ALTADENA,CA,91001-0000,LOS ANGELES COUNTY,null,null
ALTADENA CHEVRON,SMOG STATION - TEST & REPAIR,VALID,(626) 794-8181,907 E ALTADENA DR,Null,ALTADENA,CA,91001-2033,LOS ANGELES COUNTY," FAKHOURI, ANWAR","FAKHOURI, FAWZI"
D & R AUTO PARTS & REPAIR,SMOG STATION - TEST & REPAIR,VALID,(626) 296-3939,26 E WOODBURY RD,Null,ALTADENA,CA,91001-5724,LOS ANGELES COUNTY," BERUMEN, DAVID","BERUMEN, OLGA D"
EMISSION TEST CENTER ALTADENA,SMOG STATION - TEST ONLY,VALID,(626) 798-6075,2171 N FAIR OAKS AVE,Null,ALTADENA,CA,91001,LOS ANGELES COUNTY," BROD, SPENCER GRANT",null
L & J SMOG SERVICE,SMOG STATION - TEST ONLY,VALID,(626) 296-6843,2645 N FAIR OAKS AVE,Null,ALTADENA,CA,91001-0000,LOS ANGELES COUNTY," RIZO, ANGEL ANTONIO",null
L & J SMOG SERVICE,SMOG STATION - TEST & REPAIR,CANCELLED,(626) 296-6843,2645 N FAIR OAKS AVE,Null,ALTADENA,CA,91001-0000,LOS ANGELES COUNTY," RIZO, ANGEL ANTONIO",null
PURRFECT AUTO SERVICE,SMOG STATION - TEST & REPAIR,REVOKED,(626) 398-4449,2095 N LAKE AVE,Null,ALTADENA,CA,91001-2453,LOS ANGELES COUNTY," BROWN, TERESA C",null
S&A TEST ONLY CENTER,SMOG STATION - TEST ONLY,VALID,(626) 798-0178,3081 N LINCOLN AVE,Null,ALTADENA,CA,91001-0000,LOS ANGELES COUNTY," PINEDA, LUIS A",null
Null,Null,Null,Null,Null,Null,Null,Null,Null,Null,Null,Null
WARNER MOUNTAIN SMOG,SMOG STATION - TEST ONLY,VALID,(530) 640-3424,529 WOOD DUCK LN,Null,ALTURAS,CA,96101,MODOC COUNTY," GRIMME, TARA A",null
WARNER MOUNTAIN SMOG,SMOG STATION - TEST ONLY,VALID,(530) 640-3424,529 WOOD DUCK LN,Null,ALTURAS,CA,96101,MODOC COUNTY," GRIMME, TARA A",null
Null,Null,Null,Null,Null,Null,Null,Null,Null,Null,Null,Null
Null,Null,Null,Null,Null,Null,Null,Null,Null,Null,Null,Null
Null,Null,Null,Null,Null,Null,Null,Null,Null,Null,Null,Null
Null,Null,Null,Null,Null,Null,Null,Null,Null,Null,Null,Null
"A & JOHN BODY, PAINT & SMOG CHECK",SMOG STATION - TEST ONLY,CANCELLED,(714) 774-0400,130 W ELM ST,Null,ANAHEIM,CA,92805-3805,ORANGE COUNTY," DINH, JOHN THACH",null
76 SMOG CENTER,SMOG STATION - TEST & REPAIR,VALID,(714) 999-0370,2210 W LINCOLN AVE,Null,ANAHEIM,CA,92801,ORANGE COUNTY," BATARSEH, MICHAEL ISSA",null
"A & JOHN BODY, PAINT & SMOG CHECK",SMOG STATION - TEST & REPAIR,CANCELLED,(714) 774-0400,130 W ELM ST,Null,ANAHEIM,CA,92805-3805,ORANGE COUNTY," DINH, JOHN THACH",null
"A & JOHN BODY, PAINT & SMOG CHECK",SMOG STATION - TEST ONLY,CANCELLED,(714) 774-0400,130 W ELM ST,Null,ANAHEIM,CA,92805-3805,ORANGE COUNTY," DINH, JOHN THACH",null
"A & JOHN BODY, PAINT & SMOG CHECK",SMOG STATION - TEST & REPAIR,CANCELLED,(714) 774-0400,130 W ELM ST,Null,ANAHEIM,CA,92805-3805,ORANGE COUNTY," DINH, JOHN THACH",null
ACE SMOG OF ANAHEIM,SMOG STATION - TEST & REPAIR,CANCELLED,(714) 484-0110,10578 MAGNOLIA AVE,Null,ANAHEIM,CA,92804,ORANGE COUNTY,null,null
A & R SMOG,SMOG STATION - TEST ONLY,CANCELLED,(714) 920-8541,1650 W LINCOLN AVE #102,Null,ANAHEIM,CA,92801,ORANGE COUNTY,null,null
ACE SMOG OF ANAHEIM,SMOG STATION - TEST ONLY,DELINQUENT,(714) 484-0110,10578 MAGNOLIA AVE,Null,ANAHEIM,CA,92804-0000,ORANGE COUNTY," MALIK, MUHAMMAD A","MALIK, ESTHER"
ACE SMOG OF ANAHEIM,SMOG STATION - TEST & REPAIR,CANCELLED,(714) 484-0110,10578 MAGNOLIA AVE,Null,ANAHEIM,CA,92804,ORANGE COUNTY,null,null
ACE SMOG OF ANAHEIM,SMOG STATION - TEST ONLY,DELINQUENT,(714) 484-0110,10578 MAGNOLIA AVE,Null,ANAHEIM,CA,92804-0000,ORANGE COUNTY," MALIK, MUHAMMAD A","MALIK, ESTHER"
AD TEST ONLY,SMOG STATION - TEST ONLY,CANCELLED,(714) 637-3567,3905 RIVERDALE AVE,Null,ANAHEIM,CA,92807,ORANGE COUNTY,null,null
AMBASSADOR AUTOMOTIVE INC,SMOG STATION - TEST & REPAIR,VALID,(714) 970-2525,4730 EAST WESLEY DR,Null,ANAHEIM,CA,92807-0000,ORANGE COUNTY," NELSON, MARUKYN","NELSON, MARILYN J"
ANA AUTO LUBE N TUNE,SMOG STATION - TEST & REPAIR,VALID,(714) 533-0741,501 SOUTH STATE COLLEGE BLVD,Null,ANAHEIM,CA,92806-0000,ORANGE COUNTY," BHATTY, UZMA",null
ANA AUTO LUBE N TUNE INC,SMOG STATION - TEST & REPAIR,CANCELLED,(714) 533-0741,501 S STATE COLLEGE BLVD,Null,ANAHEIM,CA,92806,ORANGE COUNTY," LEE, KI WON",null
ANAHEIM 5 STAR SMOG,SMOG STATION - TEST ONLY,VALID,(714) 905-9900,1650 WEST LINCOLN AVE # 102,Null,ANAHEIM,CA,92801-0000,ORANGE COUNTY," ELSAYED, AHMAD JAWAD",null
ANAHEIM AUTOMOTIVE,SMOG STATION - TEST & REPAIR,CANCELLED,(714) 630-4533,2800 EAST LINCOLN AVE,Null,ANAHEIM,CA,92806,ORANGE COUNTY,null,null
ANAHEIM HILLS CAR WASH & LUBE,SMOG STATION - TEST & REPAIR,DELINQUENT,(714) 777-6605,5814 E LA PALMA AVE,Null,ANAHEIM,CA,92807-2247,ORANGE COUNTY," AHN, JAEDUK",null
ANAHEIM HILLS SERVICE CENTER,SMOG STATION - TEST & REPAIR,VALID,(714) 998-3501,400 SOUTH ANAHEIM HILLS RD,Null,ANAHEIM,CA,92807-0000,ORANGE COUNTY," NOBLE, MICHAEL JAMES",null
ANAHEIM HILLS SERVICE CENTER,SMOG STATION - TEST & REPAIR,VALID,(714) 998-3501,400 SOUTH ANAHEIM HILLS RD,Null,ANAHEIM,CA,92807-0000,ORANGE COUNTY," NOBLE, MICHAEL JAMES",null
ANAHEIM LINCOLN MERCURY,SMOG STATION - TEST & REPAIR,CANCELLED,(714) 533-5100,1221 S AUTO CENTER DRIVE,Null,ANAHEIM,CA,92806-5634,ORANGE COUNTY," BRITTSAN, LAUREN O","LAVERTY, SUSAN A"
ANAHEIM LINCOLN MERCURY,SMOG STATION - TEST & REPAIR,CANCELLED,(714) 533-5100,1221 S AUTO CENTER DRIVE,Null,ANAHEIM,CA,92806,ORANGE COUNTY," WILLIAMS, JAMES","BOAZ, JAMES K"
ANAHEIM SERVICE STATION,SMOG STATION - TEST & REPAIR,VALID,(714) 774-4933,300 S EAST ST,Null,ANAHEIM,CA,92805-0000,ORANGE COUNTY," MORALES, GABRIEL A","MENDEZ, PEDRO L"
ANAHEIM SMOG,SMOG STATION - TEST ONLY,VALID,(714) 991-7364,1202 E. LINCOLN AVE,Null,ANAHEIM,CA,92805-0000,ORANGE COUNTY," ALONSO, ANGEL",null
ANAHEIM SMOG CHECK,SMOG STATION - TEST ONLY,VALID,(714) 761-3777,3180 W LINCOLN #B,Null,ANAHEIM,CA,92801-0000,ORANGE COUNTY," ABSEH, ZACK",null
ANAHEIM SMOG REPAIR,SMOG STATION - TEST & REPAIR,CANCELLED,(714) 797-4848,1631 PLACENTIA AVE UNIT R,Null,ANAHEIM,CA,92806-0000,ORANGE COUNTY,null,null
ANAHEIM STAR SMOG,SMOG STATION - TEST ONLY,CANCELLED,(626) 788-0462,1650 WEST LINCOLN AVE # 102,Null,ANAHEIM,CA,92801,ORANGE COUNTY,null,null
76 SMOG CENTER,SMOG STATION - TEST & REPAIR,VALID,(714) 999-0370,2210 W LINCOLN AVE,Null,ANAHEIM,CA,92801,ORANGE COUNTY," BATARSEH, MICHAEL ISSA",null
ANAHEIM TEST ONLY CENTER,SMOG STATION - TEST ONLY,CANCELLED,(714) 761-3777,3180 W LINCOLN #B,Null,ANAHEIM,CA,92801-0000,ORANGE COUNTY,null,null
ARGUS AUTOMOTIVE CENTER,SMOG STATION - TEST & REPAIR,DELINQUENT,(714) 827-5500,10578 MAGNOLIA AVE,Null,ANAHEIM,CA,92804-5817,ORANGE COUNTY," MATTA, ELIAS IBRAHIM",null
ARTS EXXON CERTIFIED AUTO REPAIR,SMOG STATION - TEST & REPAIR,REVOKED,(714) 630-0991,2791 E LINCOLN,Null,ANAHEIM,CA,92806-3901,ORANGE COUNTY," AHMAD, HEIDARY",null
ATLAS SMOG CENTER,SMOG STATION - TEST ONLY,VALID,(714) 441-1369,1636 N LEMON ST,Null,ANAHEIM,CA,92801-0000,ORANGE COUNTY," ARIAS, LIDIA",null
AUTO CHEK CENTERS INC,SMOG STATION - TEST ONLY,VALID,(714) 870-7664,2000 E ORANGETHORPE,Null,ANAHEIM,CA,92806,ORANGE COUNTY," FUCHS, RICHARD J","FUCHS, RICHARD G"
AUTO REPAIR SHOP LAPALMA,SMOG STATION - TEST & REPAIR,VALID,(714) 758-1475,3116 WEST LINCOLN AVE,Null,ANAHEIM,CA,92801,ORANGE COUNTY,null,null
B & J AUTO REPAIR,SMOG STATION - TEST & REPAIR,REVOKED,(714) 535-5819,601 S ANAHEIM BL #B,Null,ANAHEIM,CA,92805-4702,ORANGE COUNTY," AGNELLO, JUSTIN",null
BEDARD AUTOMOTIVE INC,SMOG STATION - TEST & REPAIR,VALID,(714) 528-1380,3601 EAST MIRALOMA AVE,Null,ANAHEIM,CA,92806-2106,ORANGE COUNTY," BEDARD, CHARLES II","BEDARD, PAMELA"
BEST AUTO CARE,SMOG STATION - TEST & REPAIR,CANCELLED,(714) 956-3500,1107 N BROOKHURST ST,Null,ANAHEIM,CA,92801,ORANGE COUNTY," MERHI, SALIM N",null
BEST SMOG,SMOG STATION - TEST ONLY,CANCELLED,(714) 484-0110,10578 MAGNOLIA AVENUE,Null,ANAHEIM,CA,92804,ORANGE COUNTY," BAEK, YONG HO",null
BRIGHT SIDE AUTO CENTER,SMOG STATION - TEST ONLY,CANCELLED,(714) 774-5623,1505 N STATE COLLEGE BLVD,Null,ANAHEIM,CA,92806,ORANGE COUNTY," ROPER, RICHARD S",null
CHAPMAN AUTO REPAIR INC,SMOG STATION - TEST & REPAIR,CANCELLED,(714) 750-6505,450 W WILKEN WAY #D,Null,ANAHEIM,CA,92802-0000,ORANGE COUNTY,null,null
